[{"OBJECT_NAME":"GEESAT-4 03","OBJECT_ID":"2025-170C","EPOCH":"2026-03-09T22:09:07.867872","MEAN_MOTION":14.83663029,"ECCENTRICITY":0.00208622,"INCLINATION":49.9912,"RA_OF_ASC_NODE":274.3291,"ARG_OF_PERICENTER":40.9482,"MEAN_ANOMALY":319.3019,"EPHEMERIS_TYPE":0,"CLASSIFICATION_TYPE":"U","NORAD_CAT_ID":65121,"ELEMENT_SET_NO":999,"REV_AT_EPOCH":3169,"BSTAR":0.00035876344,"MEAN_MOTION_DOT":2.774e-5,"MEAN_MOTION_DDOT":0},{"OBJECT_NAME":"AETHER-10","OBJECT_ID":"2026-004U","EPOCH":"2026-03-09T23:23:04.191648","MEAN_MOTION":14.88103238,"ECCENTRICITY":0.0006729,"INCLINATION":97.804,"RA_OF_ASC_NODE":69.2149,"ARG_OF_PERICENTER":90.6423,"MEAN_ANOMALY":269.5564,"EPHEMERIS_TYPE":0,"CLASSIFICATION_TYPE":"U","NORAD_CAT_ID":67381,"ELEMENT_SET_NO":999,"REV_AT_EPOCH":853,"BSTAR":0.00015076297,"MEAN_MOTION_DOT":1.333e-5,"MEAN_MOTION_DDOT":0}]
